NORAD_CAT_ID,OBJECT_NAME,OBJECT_TYPE,EPOCH,MEAN_MOTION,ECCENTRICITY,INCLINATION,RA_OF_ASC_NODE,ARG_OF_PERICENTER,MEAN_ANOMALY,BSTAR,MEAN_MOTION_DOT,MEAN_MOTION_DDOT,TLE_LINE0,TLE_LINE1,TLE_LINE2,SEMIMAJOR_AXIS,PERIOD,APOGEE,PERIGEE,DECAYED
51747.0,STARLINK-3446,PAYLOAD,2022-09-24 19:34:22,15.08847971,0.0001891,53.2178,223.8967,45.4118,314.7028,0.00038273,5.81e-05,0.0,0 STARLINK-3446,1 51747U 22016AK  22267.81554098  .00005810  00000-0  38273-3 0  9994,2 51747  53.2178 223.8967 0001891  45.4118 314.7028 15.08847971 33068,6917.856,95.437,541.029,538.413,0.0
51747.0,STARLINK-3446,PAYLOAD,2022-09-25 08:17:27,15.08841372,0.0001901,53.2182,221.5176,47.2407,312.8745,8.4035e-05,1.05e-05,0.0,0 STARLINK-3446,1 51747U 22016AK  22268.34546126  .00001050  00000-0  84035-4 0  9996,2 51747  53.2182 221.5176 0001901  47.2407 312.8745 15.08841372 33146,6917.876,95.437,541.056,538.4259999999998,0.0
51747.0,STARLINK-3446,PAYLOAD,2022-09-25 19:25:10,15.08838276,0.0001889999999999,53.2184,219.4361,49.9903,310.1255,7.4088e-05,8.91e-06,0.0,0 STARLINK-3446,1 51747U 22016AK  22268.80914361  .00000891  00000-0  74088-4 0  9996,2 51747  53.2184 219.4361 0001890  49.9903 310.1255 15.08838276 33211,6917.886,95.438,541.058,538.443,0.0
51747.0,STARLINK-3446,PAYLOAD,2022-09-26 08:08:15,15.08837433,0.0001909,53.2191,217.0577,49.5662,310.5497,7.2501e-06,-1.73e-06,0.0,0 STARLINK-3446,1 51747U 22016AK  22269.33906688 -.00000173  00000-0  72501-5 0  9991,2 51747  53.2191 217.0577 0001909  49.5662 310.5497 15.08837433 34421,6917.888000000001,95.438,541.0740000000002,538.433,0.0
51747.0,STARLINK-3446,PAYLOAD,2022-09-26 19:15:58,15.08830958,0.000188,53.2191,214.9763,50.5845,309.5313,-0.00010424,-1.946e-05,0.0,0 STARLINK-3446,1 51747U 22016AK  22269.80275501 -.00001946  00000-0 -10424-3 0  9990,2 51747  53.2191 214.9763 0001880  50.5845 309.5313 15.08830958 34494,6917.908,95.438,541.0740000000002,538.472,0.0
51747.0,STARLINK-3446,PAYLOAD,2022-09-26 20:51:21,15.088265599999998,0.0001857,53.219,214.6786,51.3828,308.733,-4.9203e-05,-1.071e-05,0.0,0 STARLINK-3446,1 51747U 22016AK  22269.86899632 -.00001071  00000-0 -49203-4 0  9990,2 51747  53.2190 214.6786 0001857  51.3828 308.7330 15.08826560 33379,6917.920999999999,95.438,541.071,538.502,0.0
51747.0,STARLINK-3446,PAYLOAD,2022-09-27 07:59:02,15.08837379,0.0001888,53.2191,212.5974,50.4104,309.7055,1.2074000000000003e-05,-9.6e-07,0.0,0 STARLINK-3446,1 51747U 22016AK  22270.33267094 -.00000096  00000-0  12074-4 0  9996,2 51747  53.2191 212.5974 0001888  50.4104 309.7055 15.08837379 34575,6917.888000000001,95.438,541.059,538.447,0.0
51747.0,STARLINK-3446,PAYLOAD,2022-09-27 12:45:11,15.08843232,0.0001844999999999,53.2191,211.7055,51.1367,308.9789,3.8414e-05,3.23e-06,0.0,0 STARLINK-3446,1 51747U 22016AK  22270.53138674  .00000323  00000-0  38414-4 0  9997,2 51747  53.2191 211.7055 0001845  51.1367 308.9789 15.08843232 33476,6917.871,95.437,541.012,538.4590000000002,0.0
51747.0,STARLINK-3446,PAYLOAD,2022-09-27 19:06:43,15.08847258,0.0001891,53.2191,210.516,50.4778,309.6381,0.00017225,2.455e-05,0.0,0 STARLINK-3446,1 51747U 22016AK  22270.79634221  .00002455  00000-0  17225-3 0  9998,2 51747  53.2191 210.5160 0001891  50.4778 309.6381 15.08847258 34647,6917.858,95.437,541.031,538.415,0.0
51747.0,STARLINK-3446,PAYLOAD,2022-09-27 20:42:07,15.08844726,0.0001886999999999,53.2192,210.2187,51.1249,308.9911,0.0002683999999999,3.987e-05,0.0,0 STARLINK-3446,1 51747U 22016AK  22270.86258235  .00003987  00000-0  26840-3 0  9997,2 51747  53.2192 210.2187 0001887  51.1249 308.9911 15.08844726 33524,6917.866,95.437,541.036,538.4259999999998,0.0
51747.0,STARLINK-3446,PAYLOAD,2022-09-28 12:35:58,15.08854641,0.000193,53.2189,207.2453,51.0804,309.036,0.0003859,5.861e-05,0.0,0 STARLINK-3446,1 51747U 22016AK  22271.52498478  .00005861  00000-0  38590-3 0  9994,2 51747  53.2189 207.2453 0001930  51.0804 309.0360 15.08854641 33625,6917.8359999999975,95.437,541.036,538.365,0.0
51747.0,STARLINK-3446,PAYLOAD,2022-09-28 18:57:30,15.08859944,0.0001984,53.2188,206.056,50.5492,309.5675,0.00039434,5.997e-05,0.0,0 STARLINK-3446,1 51747U 22016AK  22271.78994114  .00005997  00000-0  39434-3 0  9998,2 51747  53.2188 206.0560 0001984  50.5492 309.5675 15.08859944 33665,6917.819,95.436,541.057,538.312,0.0
51747.0,STARLINK-3446,PAYLOAD,2022-09-29 02:54:26,15.08837257,0.0001561,53.2188,204.5695,46.3386,313.7736,-0.00046245,-7.64e-05,0.0,0 STARLINK-3446,1 51747U 22016AK  22272.12114173 -.00007640  00000-0 -46245-3 0  9993,2 51747  53.2188 204.5695 0001561  46.3386 313.7736 15.08837257 34842,6917.889,95.438,540.8340000000002,538.674,0.0
51747.0,STARLINK-3446,PAYLOAD,2022-09-29 12:26:46,15.08821379,0.0001635,53.2185,202.7853,46.9795,313.1334,-0.00016237,-2.87e-05,0.0,0 STARLINK-3446,1 51747U 22016AK  22272.51859258 -.00002870  00000-0 -16237-3 0  9994,2 51747  53.2185 202.7853 0001635  46.9795 313.1334 15.08821379 33774,6917.937,95.439,540.933,538.6709999999998,0.0
51747.0,STARLINK-3446,PAYLOAD,2022-09-30 12:17:34,15.08839729,0.0001720999999999,53.2181,198.3255,49.4324,310.6818,0.0012699999999999,0.00019982,0.0,0 STARLINK-3446,1 51747U 22016AK  22273.51220695  .00019982  00000-0  12700-2 0  9992,2 51747  53.2181 198.3255 0001721  49.4324 310.6818 15.08839729 35058,6917.880999999999,95.438,540.937,538.556,0.0
51747.0,STARLINK-3446,PAYLOAD,2022-09-30 20:14:30,15.08855007,0.000172,53.2177,196.8386,50.0276,310.0867,0.0013871999999999,0.00021867,0.0,0 STARLINK-3446,1 51747U 22016AK  22273.84340525  .00021867  00000-0  13872-2 0  9999,2 51747  53.2177 196.8386 0001720  50.0276 310.0867 15.08855007 33978,6917.835,95.437,540.889,538.51,0.0
51747.0,STARLINK-3446,PAYLOAD,2022-10-01 12:08:21,15.08857378,0.0001968,53.2185,193.8652,52.78100000000001,307.3361,0.00045108,6.902e-05,0.0,0 STARLINK-3446,1 51747U 22016AK  22274.50579880  .00006902  00000-0  45108-3 0  9992,2 51747  53.2185 193.8652 0001968  52.7810 307.3361 15.08857378 34070,6917.8269999999975,95.436,541.054,538.331,0.0
51747.0,STARLINK-3446,PAYLOAD,2022-10-02 00:51:25,15.08850978,0.0001789,53.2183,191.4858,50.7371,309.378,7.8972e-06,-1.62e-06,0.0,0 STARLINK-3446,1 51747U 22016AK  22275.03571423 -.00000162  00000-0  78972-5 0  9996,2 51747  53.2183 191.4858 0001789  50.7371 309.3780 15.08850978 34156,6917.847,95.437,540.9490000000002,538.474,0.0
51747.0,STARLINK-3446,PAYLOAD,2022-10-03 00:42:13,15.08841932,0.0001843,53.2172,187.0262,51.5538,308.5619,7.7947e-05,9.53e-06,0.0,0 STARLINK-3446,1 51747U 22016AK  22276.02932244  .00000953  00000-0  77947-4 0  9995,2 51747  53.2172 187.0262 0001843  51.5538 308.5619 15.08841932 35433,6917.874,95.437,541.014,538.465,0.0
51747.0,STARLINK-3446,PAYLOAD,2022-10-03 22:57:36,15.0887406,0.0001893,53.2177,182.8635,47.6672,312.4481,0.00089212,0.00013952,0.0,0 STARLINK-3446,1 51747U 22016AK  22276.95666940  .00013952  00000-0  89212-3 0  9994,2 51747  53.2177 182.8635 0001893  47.6672 312.4481 15.08874060 35579,6917.776,95.435,540.951,538.332,0.0
51747.0,STARLINK-3446,PAYLOAD,2022-10-04 03:43:45,15.08865818,0.0001991,53.2177,181.9739,40.4972,319.6168,0.00068233,0.00010596,0.0,0 STARLINK-3446,1 51747U 22016AK  22277.15538780  .00010596  00000-0  68233-3 0  9998,2 51747  53.2177 181.9739 0001991  40.4972 319.6168 15.08865818 34477,6917.801,95.436,541.044,538.289,0.0
51747.0,STARLINK-3446,PAYLOAD,2022-10-04 13:16:03,15.08867357,0.0001761,53.2179,180.1875,63.547,296.5702,0.00037181,5.639e-05,0.0,0 STARLINK-3446,1 51747U 22016AK  22277.55282313  .00005639  00000-0  37181-3 0  9990,2 51747  53.2179 180.1875 0001761  63.5470 296.5702 15.08867357 35664,6917.797,95.436,540.88,538.444,0.0
51747.0,STARLINK-3446,PAYLOAD,2022-10-04 19:37:36,15.08849698,8.240000000000001e-05,53.222,178.9955,26.7644,333.3391,-7.6015e-05,-1.498e-05,0.0,0 STARLINK-3446,1 51747U 22016AK  22277.81777976 -.00001498  00000-0 -76015-4 0  9994,2 51747  53.2220 178.9955 0000824  26.7644 333.3391 15.08849698 34579,6917.851,95.437,540.286,539.146,0.0
51747.0,STARLINK-3446,PAYLOAD,2022-10-05 00:23:46,15.08844123,0.0001797,53.2181,178.1057,48.2566,311.8579,-0.00020658,-3.575e-05,0.0,0 STARLINK-3446,1 51747U 22016AK  22278.01650616 -.00003575  00000-0 -20658-3 0  9997,2 51747  53.2181 178.1057 0001797  48.2566 311.8579 15.08844123 35738,6917.868,95.437,540.976,538.49,0.0
51747.0,STARLINK-3446,PAYLOAD,2022-10-05 13:06:51,15.08835237,0.0001771999999999,53.2178,175.7265,50.1133,310.0014,0.0003688,5.586e-05,0.0,0 STARLINK-3446,1 51747U 22016AK  22278.54642988  .00005586  00000-0  36880-3 0  9994,2 51747  53.2178 175.7265 0001772  50.1133 310.0014 15.08835237 34687,6917.895,95.438,540.986,538.534,0.0
51747.0,STARLINK-3446,PAYLOAD,2022-10-05 21:03:47,15.08820548,0.0001405,53.2181,174.2389,65.0052,295.1086,-0.00023964,-4.098e-05,0.0,0 STARLINK-3446,1 51747U 22016AK  22278.87763450 -.00004098  00000-0 -23964-3 0  9996,2 51747  53.2181 174.2389 0001405  65.0052 295.1086 15.08820548 34737,6917.94,95.439,540.7769999999998,538.8330000000002,0.0
51747.0,STARLINK-3446,PAYLOAD,2022-10-06 01:49:57,15.0883416,0.0002,53.2189,173.3501,40.7665,319.3477,-0.00013932,-2.504e-05,0.0,0 STARLINK-3446,1 51747U 22016AK  22279.07635607 -.00002504  00000-0 -13932-3 0  9995,2 51747  53.2189 173.3501 0002000  40.7665 319.3477 15.08834160 35899,6917.898,95.438,541.1469999999998,538.38,0.0
51747.0,STARLINK-3446,PAYLOAD,2022-10-06 09:46:52,15.08840205,0.000172,53.2187,171.8617,49.7698,310.3444,0.00016553,2.347e-05,0.0,0 STARLINK-3446,1 51747U 22016AK  22279.40755454  .00002347  00000-0  16553-3 0  9990,2 51747  53.2187 171.8617 0001720  49.7698 310.3444 15.08840205 34814,6917.88,95.438,540.935,538.555,0.0
51747.0,STARLINK-3446,PAYLOAD,2022-10-06 19:19:11,15.0883812,0.0001698,53.2185,170.0778,48.218,311.8957,0.00024828,3.665e-05,0.0,0 STARLINK-3446,1 51747U 22016AK  22279.80499720  .00003665  00000-0  24828-3 0  9993,2 51747  53.2185 170.0778 0001698  48.2180 311.8957 15.08838120 34879,6917.886,95.438,540.9259999999998,538.576,0.0
